[{"OBJECT_NAME":"HONGHU 2","OBJECT_ID":"2023-193C","EPOCH":"2026-03-09T23:21:07.139520","MEAN_MOTION":15.21543878,"ECCENTRICITY":0.00399876,"INCLINATION":97.2779,"RA_OF_ASC_NODE":62.3901,"ARG_OF_PERICENTER":264.1736,"MEAN_ANOMALY":95.4941,"EPHEMERIS_TYPE":0,"CLASSIFICATION_TYPE":"U","NORAD_CAT_ID":58555,"ELEMENT_SET_NO":999,"REV_AT_EPOCH":8691,"BSTAR":0.0061775359,"MEAN_MOTION_DOT":0.00144707,"MEAN_MOTION_DDOT":0},{"OBJECT_NAME":"STARLINK-35294","OBJECT_ID":"2025-216X","EPOCH":"2026-03-09T22:10:55.598304","MEAN_MOTION":15.30218428,"ECCENTRICITY":0.00018703,"INCLINATION":53.1617,"RA_OF_ASC_NODE":331.5029,"ARG_OF_PERICENTER":140.7085,"MEAN_ANOMALY":219.4052,"EPHEMERIS_TYPE":0,"CLASSIFICATION_TYPE":"U","NORAD_CAT_ID":65755,"ELEMENT_SET_NO":999,"REV_AT_EPOCH":2658,"BSTAR":0.0010310085,"MEAN_MOTION_DOT":0.00030319,"MEAN_MOTION_DDOT":0}]
